[{"OBJECT_NAME":"STARLINK-1621","OBJECT_ID":"2020-057L","EPOCH":"2026-03-10T00:00:02.999808","MEAN_MOTION":15.77360389,"ECCENTRICITY":0.00049397,"INCLINATION":53.0446,"RA_OF_ASC_NODE":242.112,"ARG_OF_PERICENTER":242.853,"MEAN_ANOMALY":149.5144,"EPHEMERIS_TYPE":0,"CLASSIFICATION_TYPE":"U","NORAD_CAT_ID":46127,"ELEMENT_SET_NO":999,"REV_AT_EPOCH":581,"BSTAR":0.00093063466,"MEAN_MOTION_DOT":0.00159043,"MEAN_MOTION_DDOT":0},{"OBJECT_NAME":"STARLINK-36353","OBJECT_ID":"2026-032Z","EPOCH":"2026-03-09T22:03:26.400384","MEAN_MOTION":15.75265139,"ECCENTRICITY":9.69e-5,"INCLINATION":97.2842,"RA_OF_ASC_NODE":255.4776,"ARG_OF_PERICENTER":109.3678,"MEAN_ANOMALY":250.7692,"EPHEMERIS_TYPE":0,"CLASSIFICATION_TYPE":"U","NORAD_CAT_ID":67820,"ELEMENT_SET_NO":999,"REV_AT_EPOCH":482,"BSTAR":0.0014450387,"MEAN_MOTION_DOT":0.00221819,"MEAN_MOTION_DDOT":0}]
